[{"OBJECT_NAME":"STARLINK-3508","OBJECT_ID":"2022-022L","EPOCH":"2026-03-09T01:29:52.196352","MEAN_MOTION":15.08834436,"ECCENTRICITY":0.00014249,"INCLINATION":53.2183,"RA_OF_ASC_NODE":11.9375,"ARG_OF_PERICENTER":91.4978,"MEAN_ANOMALY":268.6178,"EPHEMERIS_TYPE":0,"CLASSIFICATION_TYPE":"U","NORAD_CAT_ID":51862,"ELEMENT_SET_NO":999,"REV_AT_EPOCH":22307,"BSTAR":7.1122241e-5,"MEAN_MOTION_DOT":8.44e-6,"MEAN_MOTION_DDOT":0},{"OBJECT_NAME":"JILIN-01 KUANFU 02B 5","OBJECT_ID":"2024-169E","EPOCH":"2026-03-09T22:46:28.718400","MEAN_MOTION":15.09244096,"ECCENTRICITY":0.00111722,"INCLINATION":97.556,"RA_OF_ASC_NODE":160.0628,"ARG_OF_PERICENTER":294.0678,"MEAN_ANOMALY":65.9381,"EPHEMERIS_TYPE":0,"CLASSIFICATION_TYPE":"U","NORAD_CAT_ID":61193,"ELEMENT_SET_NO":999,"REV_AT_EPOCH":8086,"BSTAR":0.00034816655,"MEAN_MOTION_DOT":5.486e-5,"MEAN_MOTION_DDOT":0}]
